[{"OBJECT_NAME":"STARLINK-31529","OBJECT_ID":"2024-036C","EPOCH":"2026-03-09T07:02:47.727744","MEAN_MOTION":15.30193147,"ECCENTRICITY":0.00011253,"INCLINATION":53.1606,"RA_OF_ASC_NODE":77.7713,"ARG_OF_PERICENTER":89.5287,"MEAN_ANOMALY":270.5843,"EPHEMERIS_TYPE":0,"CLASSIFICATION_TYPE":"U","NORAD_CAT_ID":59000,"ELEMENT_SET_NO":999,"REV_AT_EPOCH":11521,"BSTAR":3.0341698e-5,"MEAN_MOTION_DOT":5.39e-6,"MEAN_MOTION_DDOT":0},{"OBJECT_NAME":"LYNK TOWER 6","OBJECT_ID":"2024-043AB","EPOCH":"2026-03-09T21:28:38.303328","MEAN_MOTION":15.29548678,"ECCENTRICITY":0.00097492,"INCLINATION":97.5426,"RA_OF_ASC_NODE":204.1954,"ARG_OF_PERICENTER":232.0253,"MEAN_ANOMALY":128.0107,"EPHEMERIS_TYPE":0,"CLASSIFICATION_TYPE":"U","NORAD_CAT_ID":59123,"ELEMENT_SET_NO":999,"REV_AT_EPOCH":11184,"BSTAR":0.00040142146,"MEAN_MOTION_DOT":0.0001144,"MEAN_MOTION_DDOT":0}]
